[{"OBJECT_NAME":"KUIPER-00077","OBJECT_ID":"2025-151J","EPOCH":"2026-03-09T19:52:37.813152","MEAN_MOTION":14.80197781,"ECCENTRICITY":8.795e-5,"INCLINATION":51.9019,"RA_OF_ASC_NODE":297.467,"ARG_OF_PERICENTER":199.7162,"MEAN_ANOMALY":160.3766,"EPHEMERIS_TYPE":0,"CLASSIFICATION_TYPE":"U","NORAD_CAT_ID":64824,"ELEMENT_SET_NO":999,"REV_AT_EPOCH":3536,"BSTAR":0.00060451544,"MEAN_MOTION_DOT":4.419e-5,"MEAN_MOTION_DDOT":0},{"OBJECT_NAME":"CZ-6A DEB","OBJECT_ID":"2022-151MC","EPOCH":"2026-03-09T16:22:33.432096","MEAN_MOTION":14.84965113,"ECCENTRICITY":0.00497981,"INCLINATION":98.625,"RA_OF_ASC_NODE":132.499,"ARG_OF_PERICENTER":222.1397,"MEAN_ANOMALY":137.5983,"EPHEMERIS_TYPE":0,"CLASSIFICATION_TYPE":"U","NORAD_CAT_ID":54576,"ELEMENT_SET_NO":999,"REV_AT_EPOCH":10433,"BSTAR":0.0041080463,"MEAN_MOTION_DOT":0.00035898,"MEAN_MOTION_DDOT":0}]
